CCSDS_OMM_VERS = 2.0
CREATION_DATE  = 
ORIGINATOR     = 

OBJECT_NAME    = ATLAS CENTAUR R/B
OBJECT_ID      = 1972-065B
CENTER_NAME    = EARTH
REF_FRAME      = TEME
TIME_SYSTEM    = UTC
MEAN_ELEMENT_THEORY = SGP/SGP4

EPOCH          = 2026-03-26T07:33:00.192384
MEAN_MOTION    = 14.77732108
ECCENTRICITY   = .0033165
INCLINATION    = 35.0006
RA_OF_ASC_NODE = 208.3204
ARG_OF_PERICENTER = 151.0162
MEAN_ANOMALY   = 209.2387

EPHEMERIS_TYPE = 0
CLASSIFICATION_TYPE = U
NORAD_CAT_ID   = 6155
ELEMENT_SET_NO = 999
REV_AT_EPOCH   = 84372
BSTAR          = .18362E-3
MEAN_MOTION_DOT = .1327E-4
MEAN_MOTION_DDOT = 0

CCSDS_OMM_VERS = 2.0
CREATION_DATE  = 
ORIGINATOR     = 

OBJECT_NAME    = SL-8 R/B
OBJECT_ID      = 1975-112B
CENTER_NAME    = EARTH
REF_FRAME      = TEME
TIME_SYSTEM    = UTC
MEAN_ELEMENT_THEORY = SGP/SGP4

EPOCH          = 2026-03-27T04:06:20.910240
MEAN_MOTION    = 14.38213640
ECCENTRICITY   = .0014518
INCLINATION    = 74.0631
RA_OF_ASC_NODE = 346.7572
ARG_OF_PERICENTER = 72.7313
MEAN_ANOMALY   = 287.5429

EPHEMERIS_TYPE = 0
CLASSIFICATION_TYPE = U
NORAD_CAT_ID   = 8459
ELEMENT_SET_NO = 999
REV_AT_EPOCH   = 63438
BSTAR          = .81629E-4
MEAN_MOTION_DOT = .222E-5
MEAN_MOTION_DDOT = 0

CCSDS_OMM_VERS = 2.0
CREATION_DATE  = 
ORIGINATOR     = 

OBJECT_NAME    = SL-3 R/B
OBJECT_ID      = 1977-057B
CENTER_NAME    = EARTH
REF_FRAME      = TEME
TIME_SYSTEM    = UTC
MEAN_ELEMENT_THEORY = SGP/SGP4

EPOCH          = 2026-03-27T04:44:41.254944
MEAN_MOTION    = 15.45980552
ECCENTRICITY   = .0006668
INCLINATION    = 97.5797
RA_OF_ASC_NODE = 258.8980
ARG_OF_PERICENTER = 211.2806
MEAN_ANOMALY   = 148.8047

EPHEMERIS_TYPE = 0
CLASSIFICATION_TYPE = U
NORAD_CAT_ID   = 10114
ELEMENT_SET_NO = 999
REV_AT_EPOCH   = 67103
BSTAR          = .27635E-3
MEAN_MOTION_DOT = .13393E-3
MEAN_MOTION_DDOT = 0

CCSDS_OMM_VERS = 2.0
CREATION_DATE  = 
ORIGINATOR     = 

OBJECT_NAME    = SEASAT 1
OBJECT_ID      = 1978-064A
CENTER_NAME    = EARTH
REF_FRAME      = TEME
TIME_SYSTEM    = UTC
MEAN_ELEMENT_THEORY = SGP/SGP4

EPOCH          = 2026-03-27T04:53:55.714848
MEAN_MOTION    = 14.46174299
ECCENTRICITY   = .0002621
INCLINATION    = 108.0079
RA_OF_ASC_NODE = 162.2494
ARG_OF_PERICENTER = 277.1328
MEAN_ANOMALY   = 82.9520

EPHEMERIS_TYPE = 0
CLASSIFICATION_TYPE = U
NORAD_CAT_ID   = 10967
ELEMENT_SET_NO = 999
REV_AT_EPOCH   = 50904
BSTAR          = .1098E-3
MEAN_MOTION_DOT = .255E-5
MEAN_MOTION_DDOT = 0

CCSDS_OMM_VERS = 2.0
CREATION_DATE  = 
ORIGINATOR     = 

OBJECT_NAME    = SL-14 R/B
OBJECT_ID      = 1979-011B
CENTER_NAME    = EARTH
REF_FRAME      = TEME
TIME_SYSTEM    = UTC
MEAN_ELEMENT_THEORY = SGP/SGP4

EPOCH          = 2026-03-27T05:16:25.055616
MEAN_MOTION    = 14.91929817
ECCENTRICITY   = .00161
INCLINATION    = 82.5208
RA_OF_ASC_NODE = 79.9309
ARG_OF_PERICENTER = 4.9727
MEAN_ANOMALY   = 355.1650

EPHEMERIS_TYPE = 0
CLASSIFICATION_TYPE = U
NORAD_CAT_ID   = 11267
ELEMENT_SET_NO = 999
REV_AT_EPOCH   = 53139
BSTAR          = .6668E-4
MEAN_MOTION_DOT = .701E-5
MEAN_MOTION_DDOT = 0

CCSDS_OMM_VERS = 2.0
CREATION_DATE  = 
ORIGINATOR     = 

OBJECT_NAME    = SL-8 R/B
OBJECT_ID      = 1979-089B
CENTER_NAME    = EARTH
REF_FRAME      = TEME
TIME_SYSTEM    = UTC
MEAN_ELEMENT_THEORY = SGP/SGP4

EPOCH          = 2026-03-27T05:22:35.160384
MEAN_MOTION    = 14.42360711
ECCENTRICITY   = .0016817
INCLINATION    = 74.0683
RA_OF_ASC_NODE = 58.5820
ARG_OF_PERICENTER = 229.0856
MEAN_ANOMALY   = 130.8845

EPHEMERIS_TYPE = 0
CLASSIFICATION_TYPE = U
NORAD_CAT_ID   = 11574
ELEMENT_SET_NO = 999
REV_AT_EPOCH   = 43863
BSTAR          = .92578E-4
MEAN_MOTION_DOT = .28E-5
MEAN_MOTION_DDOT = 0

CCSDS_OMM_VERS = 2.0
CREATION_DATE  = 
ORIGINATOR     = 

OBJECT_NAME    = SL-14 R/B
OBJECT_ID      = 1980-005B
CENTER_NAME    = EARTH
REF_FRAME      = TEME
TIME_SYSTEM    = UTC
MEAN_ELEMENT_THEORY = SGP/SGP4

EPOCH          = 2026-03-27T01:01:52.353984
MEAN_MOTION    = 14.90949324
ECCENTRICITY   = .001721
INCLINATION    = 82.5114
RA_OF_ASC_NODE = 290.7718
ARG_OF_PERICENTER = 104.2777
MEAN_ANOMALY   = 256.0354

EPHEMERIS_TYPE = 0
CLASSIFICATION_TYPE = U
NORAD_CAT_ID   = 11672
ELEMENT_SET_NO = 999
REV_AT_EPOCH   = 47907
BSTAR          = .53817E-4
MEAN_MOTION_DOT = .558E-5
MEAN_MOTION_DDOT = 0

CCSDS_OMM_VERS = 2.0
CREATION_DATE  = 
ORIGINATOR     = 

OBJECT_NAME    = SL-8 R/B
OBJECT_ID      = 1981-003B
CENTER_NAME    = EARTH
REF_FRAME      = TEME
TIME_SYSTEM    = UTC
MEAN_ELEMENT_THEORY = SGP/SGP4

EPOCH          = 2026-03-27T00:24:12.911904
MEAN_MOTION    = 15.11721395
ECCENTRICITY   = .0261029
INCLINATION    = 82.9341
RA_OF_ASC_NODE = 273.9921
ARG_OF_PERICENTER = 118.3279
MEAN_ANOMALY   = 244.4551

EPHEMERIS_TYPE = 0
CLASSIFICATION_TYPE = U
NORAD_CAT_ID   = 12139
ELEMENT_SET_NO = 999
REV_AT_EPOCH   = 31729
BSTAR          = .61476E-3
MEAN_MOTION_DOT = .24489E-3
MEAN_MOTION_DDOT = 0

CCSDS_OMM_VERS = 2.0
CREATION_DATE  = 
ORIGINATOR     = 

OBJECT_NAME    = SL-3 R/B
OBJECT_ID      = 1981-046B
CENTER_NAME    = EARTH
REF_FRAME      = TEME
TIME_SYSTEM    = UTC
MEAN_ELEMENT_THEORY = SGP/SGP4

EPOCH          = 2026-03-27T04:09:06.609024
MEAN_MOTION    = 15.42411512
ECCENTRICITY   = .0018303
INCLINATION    = 81.2287
RA_OF_ASC_NODE = 268.7394
ARG_OF_PERICENTER = 320.5096
MEAN_ANOMALY   = 39.4812

EPHEMERIS_TYPE = 0
CLASSIFICATION_TYPE = U
NORAD_CAT_ID   = 12465
ELEMENT_SET_NO = 999
REV_AT_EPOCH   = 44112
BSTAR          = .26174E-3
MEAN_MOTION_DOT = .1141E-3
MEAN_MOTION_DDOT = 0

CCSDS_OMM_VERS = 2.0
CREATION_DATE  = 
ORIGINATOR     = 

OBJECT_NAME    = SL-3 R/B
OBJECT_ID      = 1981-103B
CENTER_NAME    = EARTH
REF_FRAME      = TEME
TIME_SYSTEM    = UTC
MEAN_ELEMENT_THEORY = SGP/SGP4

EPOCH          = 2026-03-27T03:13:40.327392
MEAN_MOTION    = 15.21577421
ECCENTRICITY   = .0012701
INCLINATION    = 81.1604
RA_OF_ASC_NODE = 192.9687
ARG_OF_PERICENTER = 224.1183
MEAN_ANOMALY   = 135.9036

EPHEMERIS_TYPE = 0
CLASSIFICATION_TYPE = U
NORAD_CAT_ID   = 12904
ELEMENT_SET_NO = 999
REV_AT_EPOCH   = 97588
BSTAR          = .21203E-3
MEAN_MOTION_DOT = .4815E-4
MEAN_MOTION_DDOT = 0

CCSDS_OMM_VERS = 2.0
CREATION_DATE  = 
ORIGINATOR     = 

OBJECT_NAME    = SL-3 R/B
OBJECT_ID      = 1982-013B
CENTER_NAME    = EARTH
REF_FRAME      = TEME
TIME_SYSTEM    = UTC
MEAN_ELEMENT_THEORY = SGP/SGP4

EPOCH          = 2026-03-27T04:49:49.835136
MEAN_MOTION    = 15.22171143
ECCENTRICITY   = .0023446
INCLINATION    = 81.1742
RA_OF_ASC_NODE = 140.2454
ARG_OF_PERICENTER = 119.9228
MEAN_ANOMALY   = 240.4337

EPHEMERIS_TYPE = 0
CLASSIFICATION_TYPE = U
NORAD_CAT_ID   = 13068
ELEMENT_SET_NO = 999
REV_AT_EPOCH   = 40701
BSTAR          = .14629E-3
MEAN_MOTION_DOT = .3407E-4
MEAN_MOTION_DDOT = 0

CCSDS_OMM_VERS = 2.0
CREATION_DATE  = 
ORIGINATOR     = 

OBJECT_NAME    = SL-3 R/B
OBJECT_ID      = 1982-039B
CENTER_NAME    = EARTH
REF_FRAME      = TEME
TIME_SYSTEM    = UTC
MEAN_ELEMENT_THEORY = SGP/SGP4

EPOCH          = 2026-03-27T03:35:06.798336
MEAN_MOTION    = 15.10175340
ECCENTRICITY   = .0028747
INCLINATION    = 81.1569
RA_OF_ASC_NODE = 195.8304
ARG_OF_PERICENTER = 266.8237
MEAN_ANOMALY   = 92.9699

EPHEMERIS_TYPE = 0
CLASSIFICATION_TYPE = U
NORAD_CAT_ID   = 13154
ELEMENT_SET_NO = 999
REV_AT_EPOCH   = 38427
BSTAR          = .14949E-3
MEAN_MOTION_DOT = .2486E-4
MEAN_MOTION_DDOT = 0

