ATLAS CENTAUR R/B       
1 06155U 72065B   26085.31458556  .00001327  00000+0  18362-3 0  9990
2 06155  35.0006 208.3204 0033165 151.0162 209.2387 14.77732108843721
SL-8 R/B                
1 08459U 75112B   26086.17107535  .00000222  00000+0  81629-4 0  9998
2 08459  74.0631 346.7572 0014518  72.7313 287.5429 14.38213640634388
SL-3 R/B                
1 10114U 77057B   26086.19769971  .00013393  00000+0  27635-3 0  9998
2 10114  97.5797 258.8980 0006668 211.2806 148.8047 15.45980552671032
SEASAT 1                
1 10967U 78064A   26086.20411707  .00000255  00000+0  10980-3 0  9994
2 10967 108.0079 162.2494 0002621 277.1328  82.9520 14.46174299509040
SL-14 R/B               
1 11267U 79011B   26086.21973444  .00000701  00000+0  66680-4 0  9998
2 11267  82.5208  79.9309 0016100   4.9727 355.1650 14.91929817531395
SL-8 R/B                
1 11574U 79089B   26086.22401806  .00000280  00000+0  92578-4 0  9990
2 11574  74.0683  58.5820 0016817 229.0856 130.8845 14.42360711438633
SL-14 R/B               
1 11672U 80005B   26086.04296706  .00000558  00000+0  53817-4 0  9991
2 11672  82.5114 290.7718 0017210 104.2777 256.0354 14.90949324479070
SL-8 R/B                
1 12139U 81003B   26086.01681611  .00024489  00000+0  61476-3 0  9997
2 12139  82.9341 273.9921 0261029 118.3279 244.4551 15.11721395317291
SL-3 R/B                
1 12465U 81046B   26086.17299316  .00011410  00000+0  26174-3 0  9996
2 12465  81.2287 268.7394 0018303 320.5096  39.4812 15.42411512441122
SL-3 R/B                
1 12904U 81103B   26086.13449453  .00004815  00000+0  21203-3 0  9992
2 12904  81.1604 192.9687 0012701 224.1183 135.9036 15.21577421975881
SL-3 R/B                
1 13068U 82013B   26086.20127124  .00003407  00000+0  14629-3 0  9991
2 13068  81.1742 140.2454 0023446 119.9228 240.4337 15.22171143407016
SL-3 R/B                
1 13154U 82039B   26086.14938424  .00002486  00000+0  14949-3 0  9992
2 13154  81.1569 195.8304 0028747 266.8237  92.9699 15.10175340384273
